[
    {
        "Altitude(m)": 612502.1897753124,
        "Argument of Periapsis(deg)": 0.0,
        "Eccentricity": 0.0,
        "Inclination(deg)": 60.0,
        "Latitude(deg)": -28.13595750819401,
        "Longitude(deg)": 72.14827060551114,
        "Mean Anomaly(deg)": -32.727299999999985,
        "RAAN(deg)": 190.0,
        "Satellite Name": "Test1 856",
        "Satellite Number": 856,
        "Semi-Major Axis(m)": 6980739.136638005,
        "Time(s)": 0
    },
    {
        "Altitude(m)": 612308.6376469892,
        "Argument of Periapsis(deg)": 0.00010418945913296404,
        "Eccentricity": 0.0,
        "Inclination(deg)": 60.0,
        "Latitude(deg)": -27.623012564846743,
        "Longitude(deg)": 72.50174424965537,
        "Mean Anomaly(deg)": -32.10719385453813,
        "RAAN(deg)": 189.99957995086027,
        "Satellite Name": "Test1 856",
        "Satellite Number": 856,
        "Semi-Major Axis(m)": 6980739.136638005,
        "Time(s)": 10
    }
]